NORAD_CAT_ID,OBJECT_NAME,OBJECT_TYPE,EPOCH,MEAN_MOTION,ECCENTRICITY,INCLINATION,RA_OF_ASC_NODE,ARG_OF_PERICENTER,MEAN_ANOMALY,BSTAR,MEAN_MOTION_DOT,MEAN_MOTION_DDOT,TLE_LINE0,TLE_LINE1,TLE_LINE2,SEMIMAJOR_AXIS,PERIOD,APOGEE,PERIGEE,DECAYED
52286.0,STARLINK-3802,PAYLOAD,2022-04-25 18:00:00,15.81890612,0.0001163,53.217,354.8299,68.8575,144.0943,-0.0045589,-0.00855893,0.0,0 STARLINK-3802,1 52286U 22041AB  22115.75001157 -.00855893  00000-0 -45589-2 0  9992,2 52286  53.2170 354.8299 0001163  68.8575 144.0943 15.81890612  1875,6703.231,91.03,325.876,324.317,0.0
52286.0,STARLINK-3802,PAYLOAD,2022-04-26 14:00:01,15.80331599,0.0001079,53.2173,350.6567,82.2464,196.8556,-0.0050311,-0.00876154,0.0,0 STARLINK-3802,1 52286U 22041AB  22116.58335648 -.00876154  00000-0 -50311-2 0  9991,2 52286  53.2173 350.6567 0001079  82.2464 196.8556 15.80331599  2007,6707.639,91.12,330.228,328.78,0.0
52286.0,STARLINK-3802,PAYLOAD,2022-04-26 22:00:00,15.79704221,9.93e-05,53.2175,348.9926,89.0235,287.1236,-0.0051959,-0.00878733,0.0,0 STARLINK-3802,1 52286U 22041AB  22116.91667824 -.00878733  00000-0 -51959-2 0  9996,2 52286  53.2175 348.9926 0000993  89.0235 287.1236 15.79704221  1476,6709.415,91.156,331.946,330.6140000000001,0.0
52286.0,STARLINK-3802,PAYLOAD,2022-04-27 12:00:00,15.78600555,0.0001039,53.2173,346.0785,72.768,21.5083,-0.0054373999999999,-0.00874735,0.0,0 STARLINK-3802,1 52286U 22041AB  22117.50001157 -.00874735  00000-0 -54374-2 0  9995,2 52286  53.2173 346.0785 0001039  72.7680  21.5083 15.78600555  2140,6712.542,91.22,335.1040000000001,333.709,0.0
52286.0,STARLINK-3802,PAYLOAD,2022-04-27 14:00:01,15.78444767,0.0001188,53.2174,345.6626,81.2167,126.9538,-0.0054904,-0.00876857,0.0,0 STARLINK-3802,1 52286U 22041AB  22117.58335648 -.00876857  00000-0 -54904-2 0  9994,2 52286  53.2174 345.6626 0001188  81.2167 126.9538 15.78444767  1572,6712.984,91.229,335.646,334.051,0.0
52286.0,STARLINK-3802,PAYLOAD,2022-04-28 04:00:01,15.77344214,0.000105,53.2172,342.7580000000001,91.7055,191.9439,-0.0057708,-0.00876877,0.0,0 STARLINK-3802,1 52286U 22041AB  22118.16668981 -.00876877  00000-0 -57708-2 0  9995,2 52286  53.2172 342.7580 0001050  91.7055 191.9439 15.77344214  2250,6716.106,91.293,338.676,337.266,0.0
52286.0,STARLINK-3802,PAYLOAD,2022-04-28 14:00:01,15.76556681,0.0001156,53.2175,340.6825,71.5102,58.8578,-0.0059675,-0.00875529,0.0,0 STARLINK-3802,1 52286U 22041AB  22118.58334491 -.00875529  00000-0 -59675-2 0  9995,2 52286  53.2175 340.6825 0001156  71.5102  58.8578 15.76556681  1737,6718.342,91.338,340.9840000000001,339.43,0.0
52286.0,STARLINK-3802,PAYLOAD,2022-04-29 04:00:00,15.75456131,0.0001151,53.2172,337.7857,89.3701,112.5075,-0.0062786,-0.00877102,0.0,0 STARLINK-3802,1 52286U 22041AB  22119.16667824 -.00877102  00000-0 -62786-2 0  9995,2 52286  53.2172 337.7857 0001151  89.3701 112.5075 15.75456131  2406,6721.471,91.402,344.1090000000001,342.5619999999999,0.0
52286.0,STARLINK-3802,PAYLOAD,2022-04-29 14:00:01,15.74667011,0.0001026,53.2175,335.7164,76.9535,328.8725,-0.0064605,-0.0087221,0.0,0 STARLINK-3802,1 52286U 22041AB  22119.58334491 -.00872210  00000-0 -64605-2 0  9999,2 52286  53.2175 335.7164 0001026  76.9535 328.8725 15.74667011  1892,6723.715999999999,91.448,346.271,344.891,0.0
52286.0,STARLINK-3802,PAYLOAD,2022-04-29 22:00:00,15.74031166,0.0001344,53.2173,334.0662,52.2533,83.8796,-0.0065241,-0.00858239,0.0,0 STARLINK-3802,1 52286U 22041AB  22119.91667824 -.00858239  00000-0 -65241-2 0  9997,2 52286  53.2173 334.0662 0001344  52.2533  83.8796 15.74031166  1941,6725.526999999999,91.485,348.295,346.48800000000006,0.0
52286.0,STARLINK-3802,PAYLOAD,2022-04-30 06:00:00,15.7325263,0.0001134,53.2174,332.4143,81.0642,144.6361,-0.0005656,-0.00079429,0.0,0 STARLINK-3802,1 52286U 22041AB  22120.25001157 -.00079429  00000-0 -56560-3 0  9998,2 52286  53.2174 332.4143 0001134  81.0642 144.6361 15.73252630  2581,6727.745,91.53,350.37300000000016,348.847,0.0
52286.0,STARLINK-3802,PAYLOAD,2022-04-30 14:00:01,15.73204941,0.0001158,53.2176,330.7635,77.7279,236.9293,3.756e-07,-5.67e-06,0.0,0 STARLINK-3802,1 52286U 22041AB  22120.58334491 -.00000567  00000-0  37560-6 0  9992,2 52286  53.2176 330.7635 0001158  77.7279 236.9293 15.73204941  2057,6727.880999999999,91.533,350.525,348.967,0.0
52286.0,STARLINK-3802,PAYLOAD,2022-04-30 20:00:01,15.73322449,0.0001224,53.2126,329.526,69.4656,222.0869,-0.00096821,-0.00135047,0.0,0 STARLINK-3802,1 52286U 22041AB  22120.83334491 -.00135047  00000-0 -96821-3 0  9995,2 52286  53.2126 329.5260 0001224  69.4656 222.0869 15.73322449  2670,6727.545999999999,91.526,350.235,348.588,0.0
52286.0,STARLINK-3802,PAYLOAD,2022-04-30 22:00:00,15.73278063,0.0001246,53.213,329.1139,66.9439,336.8795,-0.00057883,-0.00081344,0.0,0 STARLINK-3802,1 52286U 22041AB  22120.91667824 -.00081344  00000-0 -57883-3 0  9998,2 52286  53.2130 329.1139 0001246  66.9439 336.8795 15.73278063  2103,6727.6730000000025,91.529,350.376,348.699,0.0
52286.0,STARLINK-3802,PAYLOAD,2022-05-01 12:00:00,15.73128973,0.0001002999999999,53.2136,326.2246,76.5242,32.9561,-7.9311e-05,-0.000117,0.0,0 STARLINK-3802,1 52286U 22041AB  22121.50001157 -.00011700  00000-0 -79311-4 0  9995,2 52286  53.2136 326.2246 0001003  76.5242  32.9561 15.73128973  2778,6728.098000000001,91.537,350.63800000000015,349.288,0.0
52286.0,STARLINK-3802,PAYLOAD,2022-05-01 14:00:01,15.73110634,0.0001013,53.2139,325.8125,76.8554,144.8397,0.00021902,0.00030111,0.0,0 STARLINK-3802,1 52286U 22041AB  22121.58334491  .00030111  00000-0  21902-3 0  9990,2 52286  53.2139 325.8125 0001013  76.8554 144.8397 15.73110634  2216,6728.15,91.538,350.69699999999995,349.333,0.0
52286.0,STARLINK-3802,PAYLOAD,2022-05-01 20:00:01,15.73125491,0.0001011,53.2143,324.5771,61.5453,136.7812,0.00028049,0.00038801,0.0,0 STARLINK-3802,1 52286U 22041AB  22121.83334491  .00038801  00000-0  28049-3 0  9991,2 52286  53.2143 324.5771 0001011  61.5453 136.7812 15.73125491  2827,6728.108,91.538,350.653,349.292,0.0
52286.0,STARLINK-3802,PAYLOAD,2022-05-01 22:00:01,15.73136265,0.0001051,53.2146,324.1651,59.1767,251.4252,0.00020481,0.00028142,0.0,0 STARLINK-3802,1 52286U 22041AB  22121.91668981  .00028142  00000-0  20481-3 0  9993,2 52286  53.2146 324.1651 0001051  59.1767 251.4252 15.73136265  2260,6728.0769999999975,91.537,350.649,349.235,0.0
52286.0,STARLINK-3802,PAYLOAD,2022-05-02 14:00:01,15.73222786,9.75e-05,53.215,320.8639,71.9686,56.2981,0.0002611,0.00036217,0.0,0 STARLINK-3802,1 52286U 22041AB  22122.58334491  .00036217  00000-0  26110-3 0  9990,2 52286  53.2150 320.8639 0000975  71.9686  56.2981 15.73222786  2365,6727.83,91.532,350.351,349.039,0.0
52286.0,STARLINK-3802,PAYLOAD,2022-05-02 22:00:01,15.73214565,0.0001232,53.2151,319.2162,56.8716,160.44899999999996,0.00010136,0.00013637,0.0,0 STARLINK-3802,1 52286U 22041AB  22122.91668981  .00013637  00000-0  10136-3 0  9993,2 52286  53.2151 319.2162 0001232  56.8716 160.4490 15.73214565  2428,6727.854,91.532,350.548,348.89,0.0
52286.0,STARLINK-3802,PAYLOAD,2022-05-03 04:00:00,15.73265749,0.0001288,53.2146,317.978,61.1487,132.8151,-0.0008197,-0.00114429,0.0,0 STARLINK-3802,1 52286U 22041AB  22123.16667824 -.00114429  00000-0 -81970-3 0  9993,2 52286  53.2146 317.9780 0001288  61.1487 132.8151 15.73265749  3033,6727.708000000001,91.529,350.439,348.706,0.0
52286.0,STARLINK-3802,PAYLOAD,2022-05-03 12:00:00,15.73168184,0.000132,53.2148,316.327,72.2886,210.6317,0.00060085,0.00084441,0.0,0 STARLINK-3802,1 52286U 22041AB  22123.50001157  .00084441  00000-0  60085-3 0  9994,2 52286  53.2148 316.3270 0001320  72.2886 210.6317 15.73168184  3095,6727.986,91.535,350.73900000000015,348.963,0.0
52286.0,STARLINK-3802,PAYLOAD,2022-05-03 14:00:01,15.73199854,0.0001325,53.2149,315.9151,71.3695,323.7701,0.00031407,0.00043687,0.0,0 STARLINK-3802,1 52286U 22041AB  22123.58334491  .00043687  00000-0  31407-3 0  9995,2 52286  53.2149 315.9151 0001325  71.3695 323.7701 15.73199854  2520,6727.896,91.533,350.652,348.869,0.0
52286.0,STARLINK-3802,PAYLOAD,2022-05-03 22:00:00,15.73237023,0.0001273,53.2146,314.2675,56.1831,67.9218,-7.3885e-05,-0.00010992,0.0,0 STARLINK-3802,1 52286U 22041AB  22123.91667824 -.00010992  00000-0 -73885-4 0  9993,2 52286  53.2146 314.2675 0001273  56.1831  67.9218 15.73237023  2582,6727.79,91.531,350.511,348.798,0.0
52286.0,STARLINK-3802,PAYLOAD,2022-05-04 04:00:00,15.73226873,0.0001144,53.2144,313.0291,55.465,45.3631,0.0001885,0.00025947,0.0,0 STARLINK-3802,1 52286U 22041AB  22124.16667824  .00025947  00000-0  18850-3 0  9995,2 52286  53.2144 313.0291 0001144  55.4650  45.3631 15.73226873  3197,6727.819,91.532,350.45300000000015,348.914,0.0
52286.0,STARLINK-3802,PAYLOAD,2022-05-04 12:00:00,15.73206202,0.0001538,53.2174,311.3807,66.10600000000001,123.5284,-1.5945e-05,-2.858e-05,0.0,0 STARLINK-3802,1 52286U 22041AB  22124.50001157 -.00002858  00000-0 -15945-4 0  9995,2 52286  53.2174 311.3807 0001538  66.1060 123.5284 15.73206202  3248,6727.877,91.533,350.777,348.708,0.0
52286.0,STARLINK-3802,PAYLOAD,2022-05-04 14:00:01,15.732064800000002,0.0001504,53.2176,310.9688,67.8544,234.0134,-2.232900000000001e-05,-3.754e-05,0.0,0 STARLINK-3802,1 52286U 22041AB  22124.58334491 -.00003754  00000-0 -22329-4 0  9993,2 52286  53.2176 310.9688 0001504  67.8544 234.0134 15.73206480  2687,6727.877,91.533,350.754,348.73,0.0
52286.0,STARLINK-3802,PAYLOAD,2022-05-04 20:00:01,15.73214882,0.0001307,53.2149,309.7304,52.9329,225.9378,-2.2879e-05,-3.832e-05,0.0,0 STARLINK-3802,1 52286U 22041AB  22124.83335648 -.00003832  00000-0 -22879-4 0  9993,2 52286  53.2149 309.7304 0001307  52.9329 225.9378 15.73214882  3309,6727.853,91.532,350.597,348.838,0.0
52286.0,STARLINK-3802,PAYLOAD,2022-05-04 22:00:01,15.73173441,0.0001250999999999,53.2151,309.3183,50.0764,341.0432,0.00064143,0.0009027,0.0,0 STARLINK-3802,1 52286U 22041AB  22124.91668981  .00090270  00000-0  64143-3 0  9990,2 52286  53.2151 309.3183 0001251  50.0764 341.0432 15.73173441  2735,6727.971,91.535,350.67800000000005,348.994,0.0
